KUIPER-00016            
1 63732U 25088J   25197.58335648  .00018128  00000+0  89128-3 0  9990
2 63732  51.8792  81.3272 0008073  20.7180 136.2938 15.18055397  3812
KUIPER-00018            
1 63733U 25088K   25197.02668059  .00012831  00000+0  35820-3 0  9990
2 63733  51.8666  81.0675 0006160  30.0773 330.0566 15.37062919 12241
KUIPER-00019            
1 63734U 25088L   25197.40892969  .00012099  00000+0  33998-3 0  9992
2 63734  51.8684  79.1375 0003936  48.1317 312.0005 15.36923752 12304
KUIPER-00020            
1 63735U 25088M   25197.38507564  .00009361  00000+0  29066-3 0  9993
2 63735  51.8699  79.7110 0006654  35.1798 324.9626 15.34055168 12501
KUIPER-00021            
1 63736U 25088N   25197.20919643 -.00265282  00000+0 -85512-2 0  9995
2 63736  51.8675  80.7683 0007476  27.7395 332.3987 15.32696562 12304
KUIPER-00023            
1 63737U 25088P   25197.37414723 -.00067953  00000+0 -23092-2 0  9993
2 63737  51.8677  80.3854 0010115  33.6735 326.4889 15.30026141 12629
KUIPER-00024            
1 63738U 25088Q   25197.02558704  .00013625  00000+0  36555-3 0  9998
2 63738  51.8709  80.3500 0002078  86.8955 273.2269 15.38251489 12722
KUIPER-00025            
1 63739U 25088R   25196.96775334  .00012486  00000+0  35260-3 0  9997
2 63739  51.8656  81.4147 0005640  38.8552 321.2839 15.36732820 12561
