<?xml version="1.0" encoding="UTF-8"?>
<ndm xmlns:xsi="http://www.w3.org/2001/XMLSchema-instance" xsi:noNamespaceSchemaLocation="https://sanaregistry.org/r/ndmxml_unqualified/ndmxml-2.0.0-master-2.0.xsd">
<omm id="CCSDS_OMM_VERS" version="2.0">
<header><CREATION_DATE/><ORIGINATOR/></header><body><segment><metadata><OBJECT_NAME>KUIPER-00016</OBJECT_NAME><OBJECT_ID>2025-088J</OBJECT_ID><CENTER_NAME>EARTH</CENTER_NAME><REF_FRAME>TEME</REF_FRAME><TIME_SYSTEM>UTC</TIME_SYSTEM><MEAN_ELEMENT_THEORY>SGP4</MEAN_ELEMENT_THEORY></metadata><data><meanElements><EPOCH>2025-07-16T14:00:01.999872</EPOCH><MEAN_MOTION>15.18055397</MEAN_MOTION><ECCENTRICITY>.0008073</ECCENTRICITY><INCLINATION>51.8792</INCLINATION><RA_OF_ASC_NODE>81.3272</RA_OF_ASC_NODE><ARG_OF_PERICENTER>20.7180</ARG_OF_PERICENTER><MEAN_ANOMALY>136.2938</MEAN_ANOMALY></meanElements><tleParameters><EPHEMERIS_TYPE>0</EPHEMERIS_TYPE><CLASSIFICATION_TYPE>U</CLASSIFICATION_TYPE><NORAD_CAT_ID>63732</NORAD_CAT_ID><ELEMENT_SET_NO>999</ELEMENT_SET_NO><REV_AT_EPOCH>381</REV_AT_EPOCH><BSTAR>.89128E-3</BSTAR><MEAN_MOTION_DOT>.18128E-3</MEAN_MOTION_DOT><MEAN_MOTION_DDOT>0</MEAN_MOTION_DDOT></tleParameters></data></segment></body></omm>
<omm id="CCSDS_OMM_VERS" version="2.0">
<header><CREATION_DATE/><ORIGINATOR/></header><body><segment><metadata><OBJECT_NAME>KUIPER-00018</OBJECT_NAME><OBJECT_ID>2025-088K</OBJECT_ID><CENTER_NAME>EARTH</CENTER_NAME><REF_FRAME>TEME</REF_FRAME><TIME_SYSTEM>UTC</TIME_SYSTEM><MEAN_ELEMENT_THEORY>SGP4</MEAN_ELEMENT_THEORY></metadata><data><meanElements><EPOCH>2025-07-16T00:38:25.202976</EPOCH><MEAN_MOTION>15.37062919</MEAN_MOTION><ECCENTRICITY>.000616</ECCENTRICITY><INCLINATION>51.8666</INCLINATION><RA_OF_ASC_NODE>81.0675</RA_OF_ASC_NODE><ARG_OF_PERICENTER>30.0773</ARG_OF_PERICENTER><MEAN_ANOMALY>330.0566</MEAN_ANOMALY></meanElements><tleParameters><EPHEMERIS_TYPE>0</EPHEMERIS_TYPE><CLASSIFICATION_TYPE>U</CLASSIFICATION_TYPE><NORAD_CAT_ID>63733</NORAD_CAT_ID><ELEMENT_SET_NO>999</ELEMENT_SET_NO><REV_AT_EPOCH>1224</REV_AT_EPOCH><BSTAR>.3582E-3</BSTAR><MEAN_MOTION_DOT>.12831E-3</MEAN_MOTION_DOT><MEAN_MOTION_DDOT>0</MEAN_MOTION_DDOT></tleParameters></data></segment></body></omm>
<omm id="CCSDS_OMM_VERS" version="2.0">
<header><CREATION_DATE/><ORIGINATOR/></header><body><segment><metadata><OBJECT_NAME>KUIPER-00019</OBJECT_NAME><OBJECT_ID>2025-088L</OBJECT_ID><CENTER_NAME>EARTH</CENTER_NAME><REF_FRAME>TEME</REF_FRAME><TIME_SYSTEM>UTC</TIME_SYSTEM><MEAN_ELEMENT_THEORY>SGP4</MEAN_ELEMENT_THEORY></metadata><data><meanElements><EPOCH>2025-07-16T09:48:51.525216</EPOCH><MEAN_MOTION>15.36923752</MEAN_MOTION><ECCENTRICITY>.0003936</ECCENTRICITY><INCLINATION>51.8684</INCLINATION><RA_OF_ASC_NODE>79.1375</RA_OF_ASC_NODE><ARG_OF_PERICENTER>48.1317</ARG_OF_PERICENTER><MEAN_ANOMALY>312.0005</MEAN_ANOMALY></meanElements><tleParameters><EPHEMERIS_TYPE>0</EPHEMERIS_TYPE><CLASSIFICATION_TYPE>U</CLASSIFICATION_TYPE><NORAD_CAT_ID>63734</NORAD_CAT_ID><ELEMENT_SET_NO>999</ELEMENT_SET_NO><REV_AT_EPOCH>1230</REV_AT_EPOCH><BSTAR>.33998E-3</BSTAR><MEAN_MOTION_DOT>.12099E-3</MEAN_MOTION_DOT><MEAN_MOTION_DDOT>0</MEAN_MOTION_DDOT></tleParameters></data></segment></body></omm>
<omm id="CCSDS_OMM_VERS" version="2.0">
<header><CREATION_DATE/><ORIGINATOR/></header><body><segment><metadata><OBJECT_NAME>KUIPER-00020</OBJECT_NAME><OBJECT_ID>2025-088M</OBJECT_ID><CENTER_NAME>EARTH</CENTER_NAME><REF_FRAME>TEME</REF_FRAME><TIME_SYSTEM>UTC</TIME_SYSTEM><MEAN_ELEMENT_THEORY>SGP4</MEAN_ELEMENT_THEORY></metadata><data><meanElements><EPOCH>2025-07-16T09:14:30.535296</EPOCH><MEAN_MOTION>15.34055168</MEAN_MOTION><ECCENTRICITY>.0006654</ECCENTRICITY><INCLINATION>51.8699</INCLINATION><RA_OF_ASC_NODE>79.7110</RA_OF_ASC_NODE><ARG_OF_PERICENTER>35.1798</ARG_OF_PERICENTER><MEAN_ANOMALY>324.9626</MEAN_ANOMALY></meanElements><tleParameters><EPHEMERIS_TYPE>0</EPHEMERIS_TYPE><CLASSIFICATION_TYPE>U</CLASSIFICATION_TYPE><NORAD_CAT_ID>63735</NORAD_CAT_ID><ELEMENT_SET_NO>999</ELEMENT_SET_NO><REV_AT_EPOCH>1250</REV_AT_EPOCH><BSTAR>.29066E-3</BSTAR><MEAN_MOTION_DOT>.9361E-4</MEAN_MOTION_DOT><MEAN_MOTION_DDOT>0</MEAN_MOTION_DDOT></tleParameters></data></segment></body></omm>
<omm id="CCSDS_OMM_VERS" version="2.0">
<header><CREATION_DATE/><ORIGINATOR/></header><body><segment><metadata><OBJECT_NAME>KUIPER-00021</OBJECT_NAME><OBJECT_ID>2025-088N</OBJECT_ID><CENTER_NAME>EARTH</CENTER_NAME><REF_FRAME>TEME</REF_FRAME><TIME_SYSTEM>UTC</TIME_SYSTEM><MEAN_ELEMENT_THEORY>SGP4</MEAN_ELEMENT_THEORY></metadata><data><meanElements><EPOCH>2025-07-16T05:01:14.571552</EPOCH><MEAN_MOTION>15.32696562</MEAN_MOTION><ECCENTRICITY>.0007476</ECCENTRICITY><INCLINATION>51.8675</INCLINATION><RA_OF_ASC_NODE>80.7683</RA_OF_ASC_NODE><ARG_OF_PERICENTER>27.7395</ARG_OF_PERICENTER><MEAN_ANOMALY>332.3987</MEAN_ANOMALY></meanElements><tleParameters><EPHEMERIS_TYPE>0</EPHEMERIS_TYPE><CLASSIFICATION_TYPE>U</CLASSIFICATION_TYPE><NORAD_CAT_ID>63736</NORAD_CAT_ID><ELEMENT_SET_NO>999</ELEMENT_SET_NO><REV_AT_EPOCH>1230</REV_AT_EPOCH><BSTAR>-.85512E-2</BSTAR><MEAN_MOTION_DOT>-.265282E-2</MEAN_MOTION_DOT><MEAN_MOTION_DDOT>0</MEAN_MOTION_DDOT></tleParameters></data></segment></body></omm>
<omm id="CCSDS_OMM_VERS" version="2.0">
<header><CREATION_DATE/><ORIGINATOR/></header><body><segment><metadata><OBJECT_NAME>KUIPER-00023</OBJECT_NAME><OBJECT_ID>2025-088P</OBJECT_ID><CENTER_NAME>EARTH</CENTER_NAME><REF_FRAME>TEME</REF_FRAME><TIME_SYSTEM>UTC</TIME_SYSTEM><MEAN_ELEMENT_THEORY>SGP4</MEAN_ELEMENT_THEORY></metadata><data><meanElements><EPOCH>2025-07-16T08:58:46.320672</EPOCH><MEAN_MOTION>15.30026141</MEAN_MOTION><ECCENTRICITY>.0010115</ECCENTRICITY><INCLINATION>51.8677</INCLINATION><RA_OF_ASC_NODE>80.3854</RA_OF_ASC_NODE><ARG_OF_PERICENTER>33.6735</ARG_OF_PERICENTER><MEAN_ANOMALY>326.4889</MEAN_ANOMALY></meanElements><tleParameters><EPHEMERIS_TYPE>0</EPHEMERIS_TYPE><CLASSIFICATION_TYPE>U</CLASSIFICATION_TYPE><NORAD_CAT_ID>63737</NORAD_CAT_ID><ELEMENT_SET_NO>999</ELEMENT_SET_NO><REV_AT_EPOCH>1262</REV_AT_EPOCH><BSTAR>-.23092E-2</BSTAR><MEAN_MOTION_DOT>-.67953E-3</MEAN_MOTION_DOT><MEAN_MOTION_DDOT>0</MEAN_MOTION_DDOT></tleParameters></data></segment></body></omm>
<omm id="CCSDS_OMM_VERS" version="2.0">
<header><CREATION_DATE/><ORIGINATOR/></header><body><segment><metadata><OBJECT_NAME>KUIPER-00024</OBJECT_NAME><OBJECT_ID>2025-088Q</OBJECT_ID><CENTER_NAME>EARTH</CENTER_NAME><REF_FRAME>TEME</REF_FRAME><TIME_SYSTEM>UTC</TIME_SYSTEM><MEAN_ELEMENT_THEORY>SGP4</MEAN_ELEMENT_THEORY></metadata><data><meanElements><EPOCH>2025-07-16T00:36:50.720256</EPOCH><MEAN_MOTION>15.38251489</MEAN_MOTION><ECCENTRICITY>.0002078</ECCENTRICITY><INCLINATION>51.8709</INCLINATION><RA_OF_ASC_NODE>80.3500</RA_OF_ASC_NODE><ARG_OF_PERICENTER>86.8955</ARG_OF_PERICENTER><MEAN_ANOMALY>273.2269</MEAN_ANOMALY></meanElements><tleParameters><EPHEMERIS_TYPE>0</EPHEMERIS_TYPE><CLASSIFICATION_TYPE>U</CLASSIFICATION_TYPE><NORAD_CAT_ID>63738</NORAD_CAT_ID><ELEMENT_SET_NO>999</ELEMENT_SET_NO><REV_AT_EPOCH>1272</REV_AT_EPOCH><BSTAR>.36555E-3</BSTAR><MEAN_MOTION_DOT>.13625E-3</MEAN_MOTION_DOT><MEAN_MOTION_DDOT>0</MEAN_MOTION_DDOT></tleParameters></data></segment></body></omm>
<omm id="CCSDS_OMM_VERS" version="2.0">
<header><CREATION_DATE/><ORIGINATOR/></header><body><segment><metadata><OBJECT_NAME>KUIPER-00025</OBJECT_NAME><OBJECT_ID>2025-088R</OBJECT_ID><CENTER_NAME>EARTH</CENTER_NAME><REF_FRAME>TEME</REF_FRAME><TIME_SYSTEM>UTC</TIME_SYSTEM><MEAN_ELEMENT_THEORY>SGP4</MEAN_ELEMENT_THEORY></metadata><data><meanElements><EPOCH>2025-07-15T23:13:33.888576</EPOCH><MEAN_MOTION>15.36732820</MEAN_MOTION><ECCENTRICITY>.000564</ECCENTRICITY><INCLINATION>51.8656</INCLINATION><RA_OF_ASC_NODE>81.4147</RA_OF_ASC_NODE><ARG_OF_PERICENTER>38.8552</ARG_OF_PERICENTER><MEAN_ANOMALY>321.2839</MEAN_ANOMALY></meanElements><tleParameters><EPHEMERIS_TYPE>0</EPHEMERIS_TYPE><CLASSIFICATION_TYPE>U</CLASSIFICATION_TYPE><NORAD_CAT_ID>63739</NORAD_CAT_ID><ELEMENT_SET_NO>999</ELEMENT_SET_NO><REV_AT_EPOCH>1256</REV_AT_EPOCH><BSTAR>.3526E-3</BSTAR><MEAN_MOTION_DOT>.12486E-3</MEAN_MOTION_DOT><MEAN_MOTION_DDOT>0</MEAN_MOTION_DDOT></tleParameters></data></segment></body></omm>

</ndm>
